{"type":"FeatureCollection","features":[{"type":"Feature","properties":{"s":"Bumbogo"},"geometry":{"type":"Point","coordinates":[30.15589,-1.88791]}},{"type":"Feature","properties":{"s":"Gatsata"},"geometry":{"type":"Point","coordinates":[30.04231,-1.92209]}},{"type":"Feature","properties":{"s":"Gikomero"},"geometry":{"type":"Point","coordinates":[30.22888,-1.87487]}},{"type":"Feature","properties":{"s":"Gisozi"},"geometry":{"type":"Point","coordinates":[30.06132,-1.91778]}},{"type":"Feature","properties":{"s":"Jabana"},"geometry":{"type":"Point","coordinates":[30.06402,-1.86436]}},{"type":"Feature","properties":{"s":"Jali"},"geometry":{"type":"Point","coordinates":[30.01659,-1.88253]}},{"type":"Feature","properties":{"s":"Kacyiru"},"geometry":{"type":"Point","coordinates":[30.08047,-1.93763]}},{"type":"Feature","properties":{"s":"Kimihurura"},"geometry":{"type":"Point","coordinates":[30.08829,-1.95431]}},{"type":"Feature","properties":{"s":"Kimironko"},"geometry":{"type":"Point","coordinates":[30.12418,-1.93845]}},{"type":"Feature","properties":{"s":"Kinyinya"},"geometry":{"type":"Point","coordinates":[30.09654,-1.90893]}},{"type":"Feature","properties":{"s":"Ndera"},"geometry":{"type":"Point","coordinates":[30.18682,-1.93353]}},{"type":"Feature","properties":{"s":"Nduba"},"geometry":{"type":"Point","coordinates":[30.11276,-1.85107]}},{"type":"Feature","properties":{"s":"Remera"},"geometry":{"type":"Point","coordinates":[30.10608,-1.94755]}},{"type":"Feature","properties":{"s":"Rusororo"},"geometry":{"type":"Point","coordinates":[30.23588,-1.93654]}},{"type":"Feature","properties":{"s":"Rutunga"},"geometry":{"type":"Point","coordinates":[30.17453,-1.82514]}},{"type":"Feature","properties":{"s":"Gahanga"},"geometry":{"type":"Point","coordinates":[30.10971,-2.03146]}},{"type":"Feature","properties":{"s":"Gatenga"},"geometry":{"type":"Point","coordinates":[30.08282,-1.99828]}},{"type":"Feature","properties":{"s":"Gikondo"},"geometry":{"type":"Point","coordinates":[30.0787,-1.97316]}},{"type":"Feature","properties":{"s":"Kagarama"},"geometry":{"type":"Point","coordinates":[30.11349,-1.99779]}},{"type":"Feature","properties":{"s":"Kanombe"},"geometry":{"type":"Point","coordinates":[30.14497,-1.99768]}},{"type":"Feature","properties":{"s":"Kicukiro"},"geometry":{"type":"Point","coordinates":[30.09716,-1.97181]}},{"type":"Feature","properties":{"s":"Kigarama"},"geometry":{"type":"Point","coordinates":[30.0646,-1.98751]}},{"type":"Feature","properties":{"s":"Masaka"},"geometry":{"type":"Point","coordinates":[30.20328,-2.0224]}},{"type":"Feature","properties":{"s":"Niboye"},"geometry":{"type":"Point","coordinates":[30.11381,-1.97634]}},{"type":"Feature","properties":{"s":"Nyarugunga"},"geometry":{"type":"Point","coordinates":[30.15829,-1.97468]}},{"type":"Feature","properties":{"s":"Gitega"},"geometry":{"type":"Point","coordinates":[30.05503,-1.95336]}},{"type":"Feature","properties":{"s":"Kanyinya"},"geometry":{"type":"Point","coordinates":[30.00251,-1.91784]}},{"type":"Feature","properties":{"s":"Kigali"},"geometry":{"type":"Point","coordinates":[30.01902,-1.97913]}},{"type":"Feature","properties":{"s":"Kimisagara"},"geometry":{"type":"Point","coordinates":[30.04621,-1.95287]}},{"type":"Feature","properties":{"s":"Mageregere"},"geometry":{"type":"Point","coordinates":[30.03601,-2.04196]}},{"type":"Feature","properties":{"s":"Muhima"},"geometry":{"type":"Point","coordinates":[30.06102,-1.94124]}},{"type":"Feature","properties":{"s":"Nyakabanda"},"geometry":{"type":"Point","coordinates":[30.04505,-1.96952]}},{"type":"Feature","properties":{"s":"Nyamirambo"},"geometry":{"type":"Point","coordinates":[30.0433,-1.99261]}},{"type":"Feature","properties":{"s":"Nyarugenge"},"geometry":{"type":"Point","coordinates":[30.06427,-1.95681]}},{"type":"Feature","properties":{"s":"Rwezamenyo"},"geometry":{"type":"Point","coordinates":[30.05264,-1.97126]}}]}